PELICAN-1               
1 58296U 23174AS  26204.26775304  .00010345  00000+0  79694-4 0  9996
2 58296  97.4027 306.8421 0004949 176.8672 183.2623 15.72179450151832
PELICAN-2               
1 62631U 25009Y   26203.24842226  .00000007  00000+0  21292-5 0  9994
2 62631  97.2019 293.6933 0001274  36.2458 323.8875 15.40685259 84952
PELICAN-3               
1 65315U 25188A   26204.47578108  .00008347  00000+0  20239-3 0  9998
2 65315  97.1976 280.0924 0002043 107.0354 253.1118 15.41302988 50901
PELICAN-4               
1 65316U 25188B   26204.63009025  .00000135  00000+0  53327-5 0  9997
2 65316  97.2001 280.3866 0001724  77.4780 282.6659 15.40361178 50922
PELICAN-5               
1 66667U 25276B   26204.20360719  .00019432  00000+0  60339-3 0  9997
2 66667  97.4114 279.1909 0003157  56.5105 303.6439 15.33406450 36035
PELICAN-6               
1 66703U 25276AP  26204.14517441  .00004921  00000+0  16295-3 0  9996
2 66703  97.3683 279.0796 0002111  33.2248 326.9126 15.31775194 36031
PELICAN-7               
1 69017U 26100AP  26204.59997300  .00004847  00000+0  20367-3 0  9991
2 69017  97.3797 101.9147 0003252  74.9718 285.1879 15.23888924 12359
PELICAN-9               
1 69019U 26100AR  26204.25315333  .00001869  00000+0  81913-4 0  9992
2 69019  97.3543 101.3672 0003019  88.3612 271.7971 15.23225844 12293
