{"fetched_at":"2026-07-24T07:06:09.639Z","source":"https://celestrak.org/NORAD/elements/gp.php?GROUP=planet&FORMAT=JSON","constellation":"pelican","records":[{"OBJECT_NAME":"PELICAN-1","OBJECT_ID":"2023-174AS","EPOCH":"2026-07-23T06:25:33.862656","CLASSIFICATION_TYPE":"U","MEAN_MOTION":15.7217945,"ECCENTRICITY":0.0004949,"INCLINATION":97.4027,"RA_OF_ASC_NODE":306.8421,"ARG_OF_PERICENTER":176.8672,"MEAN_ANOMALY":183.2623,"EPHEMERIS_TYPE":0,"NORAD_CAT_ID":58296,"ELEMENT_SET_NO":999,"REV_AT_EPOCH":15183,"BSTAR":0.000079694,"MEAN_MOTION_DOT":0.00010345,"MEAN_MOTION_DDOT":0},{"OBJECT_NAME":"PELICAN-2","OBJECT_ID":"2025-009Y","EPOCH":"2026-07-22T05:57:43.683264","CLASSIFICATION_TYPE":"U","MEAN_MOTION":15.40685259,"ECCENTRICITY":0.00012743,"INCLINATION":97.2019,"RA_OF_ASC_NODE":293.6933,"ARG_OF_PERICENTER":36.2458,"MEAN_ANOMALY":323.8875,"EPHEMERIS_TYPE":0,"NORAD_CAT_ID":62631,"ELEMENT_SET_NO":999,"REV_AT_EPOCH":8495,"BSTAR":0.000002129241,"MEAN_MOTION_DOT":7e-8,"MEAN_MOTION_DDOT":0},{"OBJECT_NAME":"PELICAN-3","OBJECT_ID":"2025-188A","EPOCH":"2026-07-23T11:25:07.485312","CLASSIFICATION_TYPE":"U","MEAN_MOTION":15.41302988,"ECCENTRICITY":0.0002043,"INCLINATION":97.1976,"RA_OF_ASC_NODE":280.0924,"ARG_OF_PERICENTER":107.0354,"MEAN_ANOMALY":253.1118,"EPHEMERIS_TYPE":0,"NORAD_CAT_ID":65315,"ELEMENT_SET_NO":999,"REV_AT_EPOCH":5090,"BSTAR":0.00020239,"MEAN_MOTION_DOT":0.00008347,"MEAN_MOTION_DDOT":0},{"OBJECT_NAME":"PELICAN-4","OBJECT_ID":"2025-188B","EPOCH":"2026-07-23T15:07:19.797600","CLASSIFICATION_TYPE":"U","MEAN_MOTION":15.40361178,"ECCENTRICITY":0.0001724,"INCLINATION":97.2001,"RA_OF_ASC_NODE":280.3866,"ARG_OF_PERICENTER":77.478,"MEAN_ANOMALY":282.6659,"EPHEMERIS_TYPE":0,"NORAD_CAT_ID":65316,"ELEMENT_SET_NO":999,"REV_AT_EPOCH":5092,"BSTAR":0.0000053327,"MEAN_MOTION_DOT":0.00000135,"MEAN_MOTION_DDOT":0},{"OBJECT_NAME":"PELICAN-5","OBJECT_ID":"2025-276B","EPOCH":"2026-07-23T04:53:11.661216","CLASSIFICATION_TYPE":"U","MEAN_MOTION":15.3340645,"ECCENTRICITY":0.0003157,"INCLINATION":97.4114,"RA_OF_ASC_NODE":279.1909,"ARG_OF_PERICENTER":56.5105,"MEAN_ANOMALY":303.6439,"EPHEMERIS_TYPE":0,"NORAD_CAT_ID":66667,"ELEMENT_SET_NO":999,"REV_AT_EPOCH":3603,"BSTAR":0.00060339,"MEAN_MOTION_DOT":0.00019432,"MEAN_MOTION_DDOT":0},{"OBJECT_NAME":"PELICAN-6","OBJECT_ID":"2025-276AP","EPOCH":"2026-07-23T03:29:03.069024","CLASSIFICATION_TYPE":"U","MEAN_MOTION":15.31775194,"ECCENTRICITY":0.0002111,"INCLINATION":97.3683,"RA_OF_ASC_NODE":279.0796,"ARG_OF_PERICENTER":33.2248,"MEAN_ANOMALY":326.9126,"EPHEMERIS_TYPE":0,"NORAD_CAT_ID":66703,"ELEMENT_SET_NO":999,"REV_AT_EPOCH":3603,"BSTAR":0.00016295,"MEAN_MOTION_DOT":0.00004921,"MEAN_MOTION_DDOT":0},{"OBJECT_NAME":"PELICAN-7","OBJECT_ID":"2026-100AP","EPOCH":"2026-07-23T14:23:57.667200","CLASSIFICATION_TYPE":"U","MEAN_MOTION":15.23888924,"ECCENTRICITY":0.0003252,"INCLINATION":97.3797,"RA_OF_ASC_NODE":101.9147,"ARG_OF_PERICENTER":74.9718,"MEAN_ANOMALY":285.1879,"EPHEMERIS_TYPE":0,"NORAD_CAT_ID":69017,"ELEMENT_SET_NO":999,"REV_AT_EPOCH":1235,"BSTAR":0.00020367,"MEAN_MOTION_DOT":0.00004847,"MEAN_MOTION_DDOT":0},{"OBJECT_NAME":"PELICAN-9","OBJECT_ID":"2026-100AR","EPOCH":"2026-07-23T06:04:32.447712","CLASSIFICATION_TYPE":"U","MEAN_MOTION":15.23225844,"ECCENTRICITY":0.0003019,"INCLINATION":97.3543,"RA_OF_ASC_NODE":101.3672,"ARG_OF_PERICENTER":88.3612,"MEAN_ANOMALY":271.7971,"EPHEMERIS_TYPE":0,"NORAD_CAT_ID":69019,"ELEMENT_SET_NO":999,"REV_AT_EPOCH":1229,"BSTAR":0.000081913,"MEAN_MOTION_DOT":0.00001869,"MEAN_MOTION_DDOT":0}]}
